#aV2007  6  9  0  0   .00000000      96 DD+AD WGS84 FIT  NGA
## 1430 518400.00000000   900.00000000 54260  .0000000000000
+   30     1  2  3  4  5  6  7  8  9 10 11 12 13 14 16 17 18
+         19 20 21 22 23 24 25 26 27 28 29 30 31  0  0  0  0
+          0  0  0  0  0  0  0  0  0  0  0  0  0  0  0  0  0
+          0  0  0  0  0  0  0  0  0  0  0  0  0  0  0  0  0
+          0  0  0  0  0  0  0  0  0  0  0  0  0  0  0  0  0
++         0  0  0  0  0  0  0  0  0  0  0  0  0  0  0  0  0
++         0  0  0  0  0  0  0  0  0  0  0  0  0  0  0  0  0
++         0  0  0  0  0  0  0  0  0  0  0  0  0  0  0  0  0
++         0  0  0  0  0  0  0  0  0  0  0  0  0  0  0  0  0
++         0  0  0  0  0  0  0  0  0  0  0  0  0  0  0  0  0
%c cc cc ccc ccc cccc cccc cccc cccc ccccc ccccc ccccc ccccc
%c cc cc ccc ccc cccc cccc cccc cccc ccccc ccccc ccccc ccccc
%f  0.0000000  0.000000000  0.00000000000  0.000000000000000
%f  0.0000000  0.000000000  0.00000000000  0.000000000000000
%i    0    0    0    0      0      0      0      0         0
%i    0    0    0    0      0      0      0      0         0
/*      NGA, ST. LOUIS,MO.                                  
/*   EPHEMERIS COMPUTED FROM  3 DAYS OF DATA                
/* CCCCCCCCCCCCCCCCCCCCCCCCCCCCCCCCCCCCCCCCCCCCCCCCCCCCCCCCC
/* CCCCCCCCCCCCCCCCCCCCCCCCCCCCCCCCCCCCCCCCCCCCCCCCCCCCCCCCC
*  2007  6  9  1  0   .00000000                                                 
P  1  13601.798533 -14825.078284 -17095.209577    133.025086                    
V  1  -2048.897347  22017.692260 -20540.313363       .023254                    
P  2 -22444.745351  13289.434391   3879.769560    112.782991                    
V  2  -6211.571490  -1007.626503 -31105.821118       .028650                    
P  3  10872.130956 -19182.328516  14358.662405     69.548439                    
V  3   3099.600015  18833.893454  22823.278396       .054876                    
P  4 -25274.984277   5582.192762  -6800.078426     10.047046                    
V  4   6669.074929  -5952.798217 -29610.283587      -.006680                    
P  5   9932.369269  19277.633038 -15676.385216     25.611422                    
V  5 -17858.517895  -8081.957391 -21429.339424       .532187                    
P  6   8075.848448  21918.129430  12796.688723    208.935145                    
V  6  -3969.921225  15802.396175 -24977.473485       .106317                    
P  7  10691.657540  18998.618953  15477.943884    264.732670                    
V  7  -3220.825764  19025.447852 -21680.002433      -.184185                    
P  8 -21650.662302  -2580.281376  15355.746744   -110.344923                    
V  8  17636.219190  -8409.676134  22849.821298      -.014035                    
P  9  -6459.544906  17879.721666 -19055.904029     73.768960                    
V  9 -21216.819379   9030.385673  16396.505534       .015222                    
P 10 -13551.505771   8076.970591  21297.398570    103.047475                    
V 10 -21423.723950 -16826.876372  -6900.372984       .005380                    
P 11   2900.692829 -19333.734982 -17970.194429     17.963278                    
V 11  20517.035001 -10663.424247  15169.229132       .008127                    
P 12   4861.358444  18909.727149 -17925.955145    -46.390962                    
V 12 -19553.214700 -12129.527873 -17929.127466      -.008314                    
P 13  -6760.761985 -20974.540896  14747.081926    179.800135                    
V 13   3894.654525 -18476.802372 -24280.819210       .033583                    
P 14  14427.609019   2062.994040 -22123.226026     24.028057                    
V 14  -3444.926272  27997.840872    284.774686       .018558                    
P 16  18005.919325  -3382.386941  19369.089115    154.160893                    
V 16  18843.376694  15475.424533 -14728.993929       .028466                    
P 17 -14679.489434  -4903.702626 -21578.350752     65.292474                    
V 17   3266.444309 -27238.953083   3835.885494      -.011959                    
P 18  20015.211015  17633.938037   2108.756643   -247.879282                    
V 18  -3657.199116    629.001467  31209.087223       .010158                    
P 19   7990.738362 -24710.879543   5362.737100     41.150141                    
V 19   1771.052001   7099.000275  30770.822818       .032146                    
P 20  -6265.031773 -19359.101630 -17198.506137    -25.442786                    
V 20  18755.721681  10948.115191 -19241.490713      -.003956                    
P 21  15401.948753   9329.808578  19817.531320     77.748396                    
V 21 -22542.694351  10411.627669  12114.783370       .003948                    
P 22  22855.446294   9807.799362  -9218.535204    185.762632                    
V 22   7544.529164   9666.558702  28482.898589       .018893                    
P 23   -955.873248 -25883.204462   5273.838435    172.362441                    
V 23   3310.834959  -6531.352579 -31159.464237       .028717                    
P 24   1477.469897  15754.241280  21568.168985      6.035632                    
V 24 -25183.473106   9425.321317  -4923.657269       .028160                    
P 25  -6501.357512 -14031.391169  22005.501926    304.927111                    
V 25  23494.726903 -13279.215352  -1388.169187       .225928                    
P 26  -8514.742323  23373.671251   7995.914368   -239.750332                    
V 26   -709.255992 -11098.693728  30586.029867      -.212566                    
P 27 -14686.290545  -8764.969851  21024.235098    115.507709                    
V 27  21990.851194 -12270.654839  10345.578372       .022461                    
P 28 -22868.325238 -12640.056465  -5362.454236      -.584332                    
V 28  -4221.625708  -6306.489093  30576.678310      -.007006                    
P 29 -10608.833657  20589.622285  12848.771043      3.534415                    
V 29   -127.118471 -16181.424458  26603.208843       .004261                    
P 30  14848.351374  19365.896362 -10932.335913     36.131622                    
V 30 -12642.205227  -5214.676169 -27071.408095       .009890                    
P 31  24985.045278  -7202.659596  -5409.329779     18.296044                    
V 31  -5379.784266   5335.078097 -30759.649093      -.007407                    
EOF
